[{"OBJECT_NAME":"METOP-C","OBJECT_ID":"2018-087A","EPOCH":"2026-03-14T19:39:13.322016","MEAN_MOTION":14.21498773,"ECCENTRICITY":0.00021944,"INCLINATION":98.6755,"RA_OF_ASC_NODE":135.1045,"ARG_OF_PERICENTER":92.8473,"MEAN_ANOMALY":267.2955,"EPHEMERIS_TYPE":0,"CLASSIFICATION_TYPE":"U","NORAD_CAT_ID":43689,"ELEMENT_SET_NO":999,"REV_AT_EPOCH":38142,"BSTAR":7.3309559e-5,"MEAN_MOTION_DOT":1.17e-6,"MEAN_MOTION_DDOT":0},{"OBJECT_NAME":"GEO-KOMPSAT-2A","OBJECT_ID":"2018-100A","EPOCH":"2026-03-14T09:07:12.923616","MEAN_MOTION":1.00271065,"ECCENTRICITY":0.0001616,"INCLINATION":0.0358,"RA_OF_ASC_NODE":31.7652,"ARG_OF_PERICENTER":23.6441,"MEAN_ANOMALY":21.6479,"EPHEMERIS_TYPE":0,"CLASSIFICATION_TYPE":"U","NORAD_CAT_ID":43823,"ELEMENT_SET_NO":999,"REV_AT_EPOCH":2667,"BSTAR":0,"MEAN_MOTION_DOT":-3.45e-6,"MEAN_MOTION_DDOT":0},{"OBJECT_NAME":"METEOR-M2 2","OBJECT_ID":"2019-038A","EPOCH":"2026-03-14T23:21:41.175936","MEAN_MOTION":14.24335801,"ECCENTRICITY":5.842e-5,"INCLINATION":98.9093,"RA_OF_ASC_NODE":59.8981,"ARG_OF_PERICENTER":348.4118,"MEAN_ANOMALY":11.7046,"EPHEMERIS_TYPE":0,"CLASSIFICATION_TYPE":"U","NORAD_CAT_ID":44387,"ELEMENT_SET_NO":999,"REV_AT_EPOCH":34788,"BSTAR":-1.6766831e-5,"MEAN_MOTION_DOT":-8.5e-7,"MEAN_MOTION_DDOT":0},{"OBJECT_NAME":"ARKTIKA-M 1","OBJECT_ID":"2021-016A","EPOCH":"2026-03-13T18:55:45.599808","MEAN_MOTION":2.00619294,"ECCENTRICITY":0.7248342,"INCLINATION":63.2042,"RA_OF_ASC_NODE":71.2738,"ARG_OF_PERICENTER":269.5023,"MEAN_ANOMALY":15.1596,"EPHEMERIS_TYPE":0,"CLASSIFICATION_TYPE":"U","NORAD_CAT_ID":47719,"ELEMENT_SET_NO":999,"REV_AT_EPOCH":3687,"BSTAR":0,"MEAN_MOTION_DOT":-1.08e-6,"MEAN_MOTION_DDOT":0},{"OBJECT_NAME":"FENGYUN 3E","OBJECT_ID":"2021-062A","EPOCH":"2026-03-14T21:59:57.918048","MEAN_MOTION":14.19894892,"ECCENTRICITY":0.00020226,"INCLINATION":98.7519,"RA_OF_ASC_NODE":78.372,"ARG_OF_PERICENTER":32.511,"MEAN_ANOMALY":327.6191,"EPHEMERIS_TYPE":0,"CLASSIFICATION_TYPE":"U","NORAD_CAT_ID":49008,"ELEMENT_SET_NO":999,"REV_AT_EPOCH":24320,"BSTAR":8.6485103e-5,"MEAN_MOTION_DOT":1.4e-6,"MEAN_MOTION_DDOT":0},{"OBJECT_NAME":"GOES 18","OBJECT_ID":"2022-021A","EPOCH":"2026-03-14T17:12:41.537088","MEAN_MOTION":1.00272889,"ECCENTRICITY":8.323e-5,"INCLINATION":0.035,"RA_OF_ASC_NODE":37.8704,"ARG_OF_PERICENTER":25.8264,"MEAN_ANOMALY":229.7934,"EPHEMERIS_TYPE":0,"CLASSIFICATION_TYPE":"U","NORAD_CAT_ID":51850,"ELEMENT_SET_NO":999,"REV_AT_EPOCH":564,"BSTAR":0,"MEAN_MOTION_DOT":9.6e-7,"MEAN_MOTION_DDOT":0},{"OBJECT_NAME":"NOAA 21 (JPSS-2)","OBJECT_ID":"2022-150A","EPOCH":"2026-03-14T22:30:41.018400","MEAN_MOTION":14.19553774,"ECCENTRICITY":0.00027516,"INCLINATION":98.7559,"RA_OF_ASC_NODE":14.1438,"ARG_OF_PERICENTER":97.3078,"MEAN_ANOMALY":262.8411,"EPHEMERIS_TYPE":0,"CLASSIFICATION_TYPE":"U","NORAD_CAT_ID":54234,"ELEMENT_SET_NO":999,"REV_AT_EPOCH":17317,"BSTAR":6.5422444e-5,"MEAN_MOTION_DOT":9.4e-7,"MEAN_MOTION_DDOT":0},{"OBJECT_NAME":"METEOSAT-12 (MTG-I1)","OBJECT_ID":"2022-170C","EPOCH":"2026-03-14T22:11:56.824800","MEAN_MOTION":1.00271376,"ECCENTRICITY":0.00017591,"INCLINATION":0.7121,"RA_OF_ASC_NODE":23.02,"ARG_OF_PERICENTER":290.9384,"MEAN_ANOMALY":191.2094,"EPHEMERIS_TYPE":0,"CLASSIFICATION_TYPE":"U","NORAD_CAT_ID":54743,"ELEMENT_SET_NO":999,"REV_AT_EPOCH":1203,"BSTAR":0,"MEAN_MOTION_DOT":-8.0e-8,"MEAN_MOTION_DDOT":0},{"OBJECT_NAME":"TIANMU-1 03","OBJECT_ID":"2023-039A","EPOCH":"2026-03-14T23:57:31.650336","MEAN_MOTION":15.44411877,"ECCENTRICITY":0.00039748,"INCLINATION":97.5178,"RA_OF_ASC_NODE":244.4975,"ARG_OF_PERICENTER":87.1595,"MEAN_ANOMALY":273.0108,"EPHEMERIS_TYPE":0,"CLASSIFICATION_TYPE":"U","NORAD_CAT_ID":55973,"ELEMENT_SET_NO":999,"REV_AT_EPOCH":16628,"BSTAR":0.00044514187,"MEAN_MOTION_DOT":0.00020514,"MEAN_MOTION_DDOT":0},{"OBJECT_NAME":"TIANMU-1 04","OBJECT_ID":"2023-039B","EPOCH":"2026-03-14T22:55:58.467648","MEAN_MOTION":15.44827592,"ECCENTRICITY":0.00045592,"INCLINATION":97.5111,"RA_OF_ASC_NODE":243.6118,"ARG_OF_PERICENTER":82.1823,"MEAN_ANOMALY":277.9943,"EPHEMERIS_TYPE":0,"CLASSIFICATION_TYPE":"U","NORAD_CAT_ID":55974,"ELEMENT_SET_NO":999,"REV_AT_EPOCH":16628,"BSTAR":0.00044542541,"MEAN_MOTION_DOT":0.00020821,"MEAN_MOTION_DDOT":0},{"OBJECT_NAME":"TIANMU-1 05","OBJECT_ID":"2023-039C","EPOCH":"2026-03-14T21:50:48.496128","MEAN_MOTION":15.44349743,"ECCENTRICITY":0.00038619,"INCLINATION":97.5158,"RA_OF_ASC_NODE":244.0557,"ARG_OF_PERICENTER":104.6837,"MEAN_ANOMALY":255.484,"EPHEMERIS_TYPE":0,"CLASSIFICATION_TYPE":"U","NORAD_CAT_ID":55975,"ELEMENT_SET_NO":999,"REV_AT_EPOCH":16625,"BSTAR":0.00043603526,"MEAN_MOTION_DOT":0.00020048,"MEAN_MOTION_DDOT":0},{"OBJECT_NAME":"TIANMU-1 06","OBJECT_ID":"2023-039D","EPOCH":"2026-03-14T22:55:33.424608","MEAN_MOTION":15.44855453,"ECCENTRICITY":0.00041491,"INCLINATION":97.5168,"RA_OF_ASC_NODE":244.6474,"ARG_OF_PERICENTER":99.5409,"MEAN_ANOMALY":260.6308,"EPHEMERIS_TYPE":0,"CLASSIFICATION_TYPE":"U","NORAD_CAT_ID":55976,"ELEMENT_SET_NO":999,"REV_AT_EPOCH":16628,"BSTAR":0.00045019198,"MEAN_MOTION_DOT":0.00021064,"MEAN_MOTION_DDOT":0},{"OBJECT_NAME":"FENGYUN 3G","OBJECT_ID":"2023-055A","EPOCH":"2026-03-14T21:53:26.627136","MEAN_MOTION":15.52196846,"ECCENTRICITY":0.0005944,"INCLINATION":49.9924,"RA_OF_ASC_NODE":112.091,"ARG_OF_PERICENTER":316.499,"MEAN_ANOMALY":43.5507,"EPHEMERIS_TYPE":0,"CLASSIFICATION_TYPE":"U","NORAD_CAT_ID":56232,"ELEMENT_SET_NO":999,"REV_AT_EPOCH":16535,"BSTAR":0.00056451204,"MEAN_MOTION_DOT":0.00034601,"MEAN_MOTION_DDOT":0},{"OBJECT_NAME":"METEOR-M2 3","OBJECT_ID":"2023-091A","EPOCH":"2026-03-14T22:43:20.832096","MEAN_MOTION":14.24038188,"ECCENTRICITY":0.00050992,"INCLINATION":98.6203,"RA_OF_ASC_NODE":130.8053,"ARG_OF_PERICENTER":87.3331,"MEAN_ANOMALY":272.8432,"EPHEMERIS_TYPE":0,"CLASSIFICATION_TYPE":"U","NORAD_CAT_ID":57166,"ELEMENT_SET_NO":999,"REV_AT_EPOCH":14110,"BSTAR":2.2779912e-5,"MEAN_MOTION_DOT":9.0e-8,"MEAN_MOTION_DDOT":0},{"OBJECT_NAME":"TIANMU-1 07","OBJECT_ID":"2023-101A","EPOCH":"2026-03-14T22:48:56.466720","MEAN_MOTION":15.29216035,"ECCENTRICITY":0.00049569,"INCLINATION":97.2721,"RA_OF_ASC_NODE":126.7826,"ARG_OF_PERICENTER":123.4145,"MEAN_ANOMALY":236.757,"EPHEMERIS_TYPE":0,"CLASSIFICATION_TYPE":"U","NORAD_CAT_ID":57399,"ELEMENT_SET_NO":999,"REV_AT_EPOCH":14724,"BSTAR":0.0003286957,"MEAN_MOTION_DOT":9.25e-5,"MEAN_MOTION_DDOT":0},{"OBJECT_NAME":"TIANMU-1 08","OBJECT_ID":"2023-101B","EPOCH":"2026-03-07T00:03:25.475616","MEAN_MOTION":15.29204229,"ECCENTRICITY":0.00063808,"INCLINATION":97.2717,"RA_OF_ASC_NODE":118.7901,"ARG_OF_PERICENTER":134.2174,"MEAN_ANOMALY":225.9592,"EPHEMERIS_TYPE":0,"CLASSIFICATION_TYPE":"U","NORAD_CAT_ID":57400,"ELEMENT_SET_NO":999,"REV_AT_EPOCH":14602,"BSTAR":1.4774513e-5,"MEAN_MOTION_DOT":3.46e-6,"MEAN_MOTION_DDOT":0},{"OBJECT_NAME":"TIANMU-1 09","OBJECT_ID":"2023-101C","EPOCH":"2026-03-14T23:13:28.693344","MEAN_MOTION":15.29168027,"ECCENTRICITY":0.00052178,"INCLINATION":97.2668,"RA_OF_ASC_NODE":126.049,"ARG_OF_PERICENTER":126.3208,"MEAN_ANOMALY":233.8515,"EPHEMERIS_TYPE":0,"CLASSIFICATION_TYPE":"U","NORAD_CAT_ID":57401,"ELEMENT_SET_NO":999,"REV_AT_EPOCH":14724,"BSTAR":0.00033400943,"MEAN_MOTION_DOT":9.387e-5,"MEAN_MOTION_DDOT":0}]
