METOP-C                 
1 43689U 18087A   26073.81890419  .00000117  00000+0  73310-4 0  9998
2 43689  98.6755 135.1045 0002194  92.8473 267.2955 14.21498773381420
GEO-KOMPSAT-2A          
1 43823U 18100A   26073.38001069 -.00000345  00000+0  00000+0 0  9996
2 43823   0.0358  31.7652 0001616  23.6441  21.6479  1.00271065 26678
METEOR-M2 2             
1 44387U 19038A   26073.97339324 -.00000085  00000+0 -16767-4 0  9990
2 44387  98.9093  59.8981 0000584 348.4118  11.7046 14.24335801347882
ARKTIKA-M 1             
1 47719U 21016A   26072.78872222 -.00000108  00000+0  00000+0 0  9991
2 47719  63.2042  71.2738 7248342 269.5023  15.1596  2.00619294 36876
FENGYUN 3E              
1 49008U 21062A   26073.91664257  .00000140  00000+0  86485-4 0  9999
2 49008  98.7519  78.3720 0002022  32.5110 327.6191 14.19894892243202
GOES 18                 
1 51850U 22021A   26073.71714742  .00000096  00000+0  00000+0 0  9990
2 51850   0.0350  37.8704 0000832  25.8264 229.7934  1.00272889  5646
NOAA 21 (JPSS-2)        
1 54234U 22150A   26073.93797475  .00000094  00000+0  65422-4 0  9992
2 54234  98.7559  14.1438 0002751  97.3078 262.8411 14.19553774173172
METEOSAT-12 (MTG-I1)    
1 54743U 22170C   26073.92496325 -.00000008  00000+0  00000+0 0  9990
2 54743   0.7121  23.0200 0001759 290.9384 191.2094  1.00271376 12039
TIANMU-1 03             
1 55973U 23039A   26073.99828299  .00020514  00000+0  44514-3 0  9992
2 55973  97.5178 244.4975 0003974  87.1595 273.0108 15.44411877166287
TIANMU-1 04             
1 55974U 23039B   26073.95553782  .00020821  00000+0  44543-3 0  9994
2 55974  97.5111 243.6118 0004559  82.1823 277.9943 15.44827592166289
TIANMU-1 05             
1 55975U 23039C   26073.91028352  .00020048  00000+0  43604-3 0  9999
2 55975  97.5158 244.0557 0003861 104.6837 255.4840 15.44349743166254
TIANMU-1 06             
1 55976U 23039D   26073.95524797  .00021064  00000+0  45019-3 0  9999
2 55976  97.5168 244.6474 0004149  99.5409 260.6308 15.44855453166287
FENGYUN 3G              
1 56232U 23055A   26073.91211374  .00034601  00000+0  56451-3 0  9996
2 56232  49.9924 112.0910 0005944 316.4990  43.5507 15.52196846165356
METEOR-M2 3             
1 57166U 23091A   26073.94676889  .00000009  00000+0  22780-4 0  9996
2 57166  98.6203 130.8053 0005099  87.3331 272.8432 14.24038188141107
TIANMU-1 07             
1 57399U 23101A   26073.95065355  .00009250  00000+0  32870-3 0  9994
2 57399  97.2721 126.7826 0004956 123.4145 236.7570 15.29216035147241
TIANMU-1 08             
1 57400U 23101B   26066.00237819  .00000346  00000+0  14775-4 0  9993
2 57400  97.2717 118.7901 0006380 134.2174 225.9592 15.29204229146020
TIANMU-1 09             
1 57401U 23101C   26073.96769321  .00009387  00000+0  33401-3 0  9995
2 57401  97.2668 126.0490 0005217 126.3208 233.8515 15.29168027147242
